{
  "type": "FeatureCollection",
  "features": [
    {
      "type": "Feature",
      "properties": {
        "norad_id": 67077,
        "name": "STARLINK-36243",
        "group": "last-30-days",
        "lat": 8.30176227381985,
        "lon": -148.170415023301,
        "alt_km": 350.9680103571327,
        "timestamp": "2025-12-27T05:29:37.920119+00:00",
        "meta_object_name": "STARLINK-36243",
        "meta_object_id": "2025-298C",
        "meta_epoch": "2025-12-26T22:00:01.999584",
        "meta_mean_motion": 15.74466005,
        "meta_eccentricity": 0.00037176,
        "meta_inclination": 69.9986,
        "meta_ra_of_asc_node": 209.6653,
        "meta_arg_of_pericenter": 277.5645,
        "meta_mean_anomaly": 122.8613,
        "meta_ephemeris_type": 0,
        "meta_classification_type": "U",
        "meta_norad_cat_id": 67077,
        "meta_element_set_no": 999,
        "meta_rev_at_epoch": 325,
        "meta_bstar": -0.013265073,
        "meta_mean_motion_dot": -0.01709027,
        "meta_mean_motion_ddot": 0,
        "tle_line1": "1 67077U 25298C   25360.91668981 -.01709027  00000+0 -13265-1 0  9992",
        "tle_line2": "2 67077  69.9986 209.6653 0003717 277.5645 122.8613 15.74466005  3252"
      },
      "geometry": {
        "type": "Point",
        "coordinates": [
          -148.170415023301,
          8.30176227381985
        ]
      }
    },
    {
      "type": "Feature",
      "properties": {
        "norad_id": 67078,
        "name": "STARLINK-36236",
        "group": "last-30-days",
        "lat": 10.024976610094443,
        "lon": -147.52744357090415,
        "alt_km": 350.7947532046892,
        "timestamp": "2025-12-27T05:29:37.920130+00:00",
        "meta_object_name": "STARLINK-36236",
        "meta_object_id": "2025-298D",
        "meta_epoch": "2025-12-26T22:00:01.999584",
        "meta_mean_motion": 15.74469871,
        "meta_eccentricity": 0.00038181,
        "meta_inclination": 69.9988,
        "meta_ra_of_asc_node": 209.6631,
        "meta_arg_of_pericenter": 277.32,
        "meta_mean_anomaly": 124.9361,
        "meta_ephemeris_type": 0,
        "meta_classification_type": "U",
        "meta_norad_cat_id": 67078,
        "meta_element_set_no": 999,
        "meta_rev_at_epoch": 325,
        "meta_bstar": -0.013255172,
        "meta_mean_motion_dot": -0.0170825,
        "meta_mean_motion_ddot": 0,
        "tle_line1": "1 67078U 25298D   25360.91668981 -.01708250  00000+0 -13255-1 0  9999",
        "tle_line2": "2 67078  69.9988 209.6631 0003818 277.3200 124.9361 15.74469871  3255"
      },
      "geometry": {
        "type": "Point",
        "coordinates": [
          -147.52744357090415,
          10.024976610094443
        ]
      }
    },
    {
      "type": "Feature",
      "properties": {
        "norad_id": 67079,
        "name": "STARLINK-36159",
        "group": "last-30-days",
        "lat": 12.037744046301716,
        "lon": -146.76663465162196,
        "alt_km": 350.7375880861491,
        "timestamp": "2025-12-27T05:29:37.920140+00:00",
        "meta_object_name": "STARLINK-36159",
        "meta_object_id": "2025-298E",
        "meta_epoch": "2025-12-26T22:00:01.999584",
        "meta_mean_motion": 15.74536377,
        "meta_eccentricity": 0.00037651,
        "meta_inclination": 69.9991,
        "meta_ra_of_asc_node": 209.6609,
        "meta_arg_of_pericenter": 278.9551,
        "meta_mean_anomaly": 125.4572,
        "meta_ephemeris_type": 0,
        "meta_classification_type": "U",
        "meta_norad_cat_id": 67079,
        "meta_element_set_no": 999,
        "meta_rev_at_epoch": 325,
        "meta_bstar": -0.01491079,
        "meta_mean_motion_dot": -0.01898583,
        "meta_mean_motion_ddot": 0,
        "tle_line1": "1 67079U 25298E   25360.91668981 -.01898583  00000+0 -14911-1 0  9999",
        "tle_line2": "2 67079  69.9991 209.6609 0003765 278.9551 125.4572 15.74536377  3258"
      },
      "geometry": {
        "type": "Point",
        "coordinates": [
          -146.76663465162196,
          12.037744046301716
        ]
      }
    },
    {
      "type": "Feature",
      "properties": {
        "norad_id": 67080,
        "name": "STARLINK-36158",
        "group": "last-30-days",
        "lat": 13.994097492644858,
        "lon": -146.0161208616456,
        "alt_km": 350.45951085428806,
        "timestamp": "2025-12-27T05:29:37.920150+00:00",
        "meta_object_name": "STARLINK-36158",
        "meta_object_id": "2025-298F",
        "meta_epoch": "2025-12-26T22:00:01.999584",
        "meta_mean_motion": 15.74447513,
        "meta_eccentricity": 0.00038247,
        "meta_inclination": 69.9985,
        "meta_ra_of_asc_node": 209.6578,
        "meta_arg_of_pericenter": 276.842,
        "meta_mean_anomaly": 129.673,
        "meta_ephemeris_type": 0,
        "meta_classification_type": "U",
        "meta_norad_cat_id": 67080,
        "meta_element_set_no": 999,
        "meta_rev_at_epoch": 319,
        "meta_bstar": -0.013251063,
        "meta_mean_motion_dot": -0.01706318,
        "meta_mean_motion_ddot": 0,
        "tle_line1": "1 67080U 25298F   25360.91668981 -.01706318  00000+0 -13251-1 0  9991",
        "tle_line2": "2 67080  69.9985 209.6578 0003824 276.8420 129.6730 15.74447513  3194"
      },
      "geometry": {
        "type": "Point",
        "coordinates": [
          -146.0161208616456,
          13.994097492644858
        ]
      }
    },
    {
      "type": "Feature",
      "properties": {
        "norad_id": 67081,
        "name": "STARLINK-35864",
        "group": "last-30-days",
        "lat": 15.816744314511391,
        "lon": -145.30386392791618,
        "alt_km": 350.21557540501544,
        "timestamp": "2025-12-27T05:29:37.920160+00:00",
        "meta_object_name": "STARLINK-35864",
        "meta_object_id": "2025-298G",
        "meta_epoch": "2025-12-26T22:00:01.999584",
        "meta_mean_motion": 15.7445026,
        "meta_eccentricity": 0.0003669,
        "meta_inclination": 69.9987,
        "meta_ra_of_asc_node": 209.6557,
        "meta_arg_of_pericenter": 277.5129,
        "meta_mean_anomaly": 130.9508,
        "meta_ephemeris_type": 0,
        "meta_classification_type": "U",
        "meta_norad_cat_id": 67081,
        "meta_element_set_no": 999,
        "meta_rev_at_epoch": 325,
        "meta_bstar": -0.013296565,
        "meta_mean_motion_dot": -0.01711527,
        "meta_mean_motion_ddot": 0,
        "tle_line1": "1 67081U 25298G   25360.91668981 -.01711527  00000+0 -13297-1 0  9990",
        "tle_line2": "2 67081  69.9987 209.6557 0003669 277.5129 130.9508 15.74450260  3253"
      },
      "geometry": {
        "type": "Point",
        "coordinates": [
          -145.30386392791618,
          15.816744314511391
        ]
      }
    },
    {
      "type": "Feature",
      "properties": {
        "norad_id": 67082,
        "name": "STARLINK-36035",
        "group": "last-30-days",
        "lat": 17.70863921727957,
        "lon": -144.54985821222428,
        "alt_km": 349.95546862918945,
        "timestamp": "2025-12-27T05:29:37.920170+00:00",
        "meta_object_name": "STARLINK-36035",
        "meta_object_id": "2025-298H",
        "meta_epoch": "2025-12-26T22:00:01.999584",
        "meta_mean_motion": 15.74442541,
        "meta_eccentricity": 0.00036918,
        "meta_inclination": 69.9988,
        "meta_ra_of_asc_node": 209.6534,
        "meta_arg_of_pericenter": 278.9782,
        "meta_mean_anomaly": 131.5166,
        "meta_ephemeris_type": 0,
        "meta_classification_type": "U",
        "meta_norad_cat_id": 67082,
        "meta_element_set_no": 999,
        "meta_rev_at_epoch": 325,
        "meta_bstar": -0.013272117,
        "meta_mean_motion_dot": -0.01708259,
        "meta_mean_motion_ddot": 0,
        "tle_line1": "1 67082U 25298H   25360.91668981 -.01708259  00000+0 -13272-1 0  9992",
        "tle_line2": "2 67082  69.9988 209.6534 0003691 278.9782 131.5166 15.74442541  3255"
      },
      "geometry": {
        "type": "Point",
        "coordinates": [
          -144.54985821222428,
          17.70863921727957
        ]
      }
    },
    {
      "type": "Feature",
      "properties": {
        "norad_id": 67083,
        "name": "STARLINK-36170",
        "group": "last-30-days",
        "lat": 19.62692504779041,
        "lon": -143.76805055645812,
        "alt_km": 349.83739687102843,
        "timestamp": "2025-12-27T05:29:37.920180+00:00",
        "meta_object_name": "STARLINK-36170",
        "meta_object_id": "2025-298J",
        "meta_epoch": "2025-12-26T22:00:01.999584",
        "meta_mean_motion": 15.74433295,
        "meta_eccentricity": 0.00037037,
        "meta_inclination": 69.9985,
        "meta_ra_of_asc_node": 209.6505,
        "meta_arg_of_pericenter": 277.2976,
        "meta_mean_anomaly": 135.2635,
        "meta_ephemeris_type": 0,
        "meta_classification_type": "U",
        "meta_norad_cat_id": 67083,
        "meta_element_set_no": 999,
        "meta_rev_at_epoch": 325,
        "meta_bstar": -0.013277607,
        "meta_mean_motion_dot": -0.01708286,
        "meta_mean_motion_ddot": 0,
        "tle_line1": "1 67083U 25298J   25360.91668981 -.01708286  00000+0 -13278-1 0  9999",
        "tle_line2": "2 67083  69.9985 209.6505 0003703 277.2976 135.2635 15.74433295  3250"
      },
      "geometry": {
        "type": "Point",
        "coordinates": [
          -143.76805055645812,
          19.62692504779041
        ]
      }
    }
  ]
}